IRIDIUM 166             
1 43570U 18061B   23281.60545398  .00000236  00000+0  77321-4 0  9995
2 43570  86.3915 107.4117 0001879  89.1889 270.9522 14.34218896272567
IRIDIUM 158             
1 43571U 18061C   23281.57373516  .00000241  00000+0  78823-4 0  9997
2 43571  86.3915 107.4340 0002009  98.5118 261.6306 14.34219444272524
IRIDIUM 165             
1 43572U 18061D   23281.59911337  .00000228  00000+0  74505-4 0  9997
2 43572  86.3917 107.4512 0002013  99.6923 260.4500 14.34218219272554
IRIDIUM 155             
1 43573U 18061E   23281.56105579  .00000238  00000+0  78008-4 0  9991
2 43573  86.3913 107.3844 0002065  81.4548 278.6882 14.34218855272513
IRIDIUM 154             
1 43574U 18061F   23281.61179226  .00000230  00000+0  74903-4 0  9990
2 43574  86.3917 107.4489 0002354  90.3656 269.7809 14.34218602272570
IRIDIUM 163             
1 43575U 18061G   23281.59275268  .00000242  00000+0  79383-4 0  9991
2 43575  86.3913 107.4026 0002164  90.5912 269.5532 14.34217424272549
IRIDIUM 156             
1 43576U 18061H   23281.56739589  .00000231  00000+0  75473-4 0  9994
2 43576  86.3915 107.4192 0001863  89.0809 271.0600 14.34219197272531
IRIDIUM 164             
1 43577U 18061J   23281.54837079  .00000232  00000+0  75917-4 0  9990
2 43577  86.3915 107.4524 0002018  93.2815 266.8612 14.34218320272574
